[{"CCSDS_OMM_VERS":"3.0","COMMENT":"GENERATED VIA SPACE-TRACK.ORG API","CREATION_DATE":"2026-05-31T00:06:40","ORIGINATOR":"18 SPCS","OBJECT_NAME":"COSMOS 2584(GLONASS)","OBJECT_ID":"2025-042A","CENTER_NAME":"EARTH","REF_FRAME":"TEME","TIME_SYSTEM":"UTC","MEAN_ELEMENT_THEORY":"SGP4","EPOCH":"2026-05-30T07:24:11.392416","MEAN_MOTION":"2.13103952","ECCENTRICITY":"0.00059400","INCLINATION":"65.0747","RA_OF_ASC_NODE":"73.4094","ARG_OF_PERICENTER":"230.6218","MEAN_ANOMALY":"129.3199","EPHEMERIS_TYPE":"0","CLASSIFICATION_TYPE":"U","NORAD_CAT_ID":"63130","ELEMENT_SET_NO":"999","REV_AT_EPOCH":"966","BSTAR":"0.00000000000000","MEAN_MOTION_DOT":"-0.00000052","MEAN_MOTION_DDOT":"0.0000000000000","SEMIMAJOR_AXIS":"25507.869","PERIOD":"675.727","APOAPSIS":"19144.885","PERIAPSIS":"19114.582","OBJECT_TYPE":"PAYLOAD","RCS_SIZE":"LARGE","COUNTRY_CODE":"CIS","LAUNCH_DATE":"2025-03-02","SITE":"PKMTR","DECAY_DATE":null,"FILE":"5223810","GP_ID":"326178755","TLE_LINE0":"0 COSMOS 2584(GLONASS)","TLE_LINE1":"1 63130U 25042A   26150.30846519 -.00000052  00000-0  00000+0 0  9993","TLE_LINE2":"2 63130  65.0747  73.4094 0005940 230.6218 129.3199  2.13103952  9662"},{"CCSDS_OMM_VERS":"3.0","COMMENT":"GENERATED VIA SPACE-TRACK.ORG API","CREATION_DATE":"2026-06-01T10:22:25","ORIGINATOR":"18 SPCS","OBJECT_NAME":"COSMOS 2584(GLONASS)","OBJECT_ID":"2025-042A","CENTER_NAME":"EARTH","REF_FRAME":"TEME","TIME_SYSTEM":"UTC","MEAN_ELEMENT_THEORY":"SGP4","EPOCH":"2026-05-31T05:55:39.458208","MEAN_MOTION":"2.13103967","ECCENTRICITY":"0.00059206","INCLINATION":"65.0752","RA_OF_ASC_NODE":"73.3776","ARG_OF_PERICENTER":"230.3550","MEAN_ANOMALY":"129.5914","EPHEMERIS_TYPE":"0","CLASSIFICATION_TYPE":"U","NORAD_CAT_ID":"63130","ELEMENT_SET_NO":"999","REV_AT_EPOCH":"968","BSTAR":"0.00000000000000","MEAN_MOTION_DOT":"-0.00000044","MEAN_MOTION_DDOT":"0.0000000000000","SEMIMAJOR_AXIS":"25507.867","PERIOD":"675.727","APOAPSIS":"19144.835","PERIAPSIS":"19114.630","OBJECT_TYPE":"PAYLOAD","RCS_SIZE":"LARGE","COUNTRY_CODE":"CIS","LAUNCH_DATE":"2025-03-02","SITE":"PKMTR","DECAY_DATE":null,"FILE":"5227124","GP_ID":"326552176","TLE_LINE0":"0 COSMOS 2584(GLONASS)","TLE_LINE1":"1 63130U 25042A   26151.24698447 -.00000044  00000-0  00000-0 0  9994","TLE_LINE2":"2 63130  65.0752  73.3776 0005921 230.3550 129.5914  2.13103967  9684"},{"CCSDS_OMM_VERS":"3.0","COMMENT":"GENERATED VIA SPACE-TRACK.ORG API","CREATION_DATE":"2026-06-01T06:57:18","ORIGINATOR":"18 SPCS","OBJECT_NAME":"COSMOS 2584(GLONASS)","OBJECT_ID":"2025-042A","CENTER_NAME":"EARTH","REF_FRAME":"TEME","TIME_SYSTEM":"UTC","MEAN_ELEMENT_THEORY":"SGP4","EPOCH":"2026-05-31T05:55:39.458208","MEAN_MOTION":"2.13103967","ECCENTRICITY":"0.00059210","INCLINATION":"65.0752","RA_OF_ASC_NODE":"73.3776","ARG_OF_PERICENTER":"230.3550","MEAN_ANOMALY":"129.5914","EPHEMERIS_TYPE":"0","CLASSIFICATION_TYPE":"U","NORAD_CAT_ID":"63130","ELEMENT_SET_NO":"999","REV_AT_EPOCH":"968","BSTAR":"0.00000000000000","MEAN_MOTION_DOT":"-0.00000044","MEAN_MOTION_DDOT":"0.0000000000000","SEMIMAJOR_AXIS":"25507.867","PERIOD":"675.727","APOAPSIS":"19144.836","PERIAPSIS":"19114.629","OBJECT_TYPE":"PAYLOAD","RCS_SIZE":"LARGE","COUNTRY_CODE":"CIS","LAUNCH_DATE":"2025-03-02","SITE":"PKMTR","DECAY_DATE":null,"FILE":"5227016","GP_ID":"326516406","TLE_LINE0":"0 COSMOS 2584(GLONASS)","TLE_LINE1":"1 63130U 25042A   26151.24698447 -.00000044  00000-0  00000+0 0  9993","TLE_LINE2":"2 63130  65.0752  73.3776 0005921 230.3550 129.5914  2.13103967  9684"},{"CCSDS_OMM_VERS":"3.0","COMMENT":"GENERATED VIA SPACE-TRACK.ORG API","CREATION_DATE":"2026-06-05T08:16:34","ORIGINATOR":"18 SPCS","OBJECT_NAME":"COSMOS 2584(GLONASS)","OBJECT_ID":"2025-042A","CENTER_NAME":"EARTH","REF_FRAME":"TEME","TIME_SYSTEM":"UTC","MEAN_ELEMENT_THEORY":"SGP4","EPOCH":"2026-06-04T22:32:59.851104","MEAN_MOTION":"2.13103948","ECCENTRICITY":"0.00058310","INCLINATION":"65.0776","RA_OF_ASC_NODE":"73.2182","ARG_OF_PERICENTER":"229.2014","MEAN_ANOMALY":"130.7692","EPHEMERIS_TYPE":"0","CLASSIFICATION_TYPE":"U","NORAD_CAT_ID":"63130","ELEMENT_SET_NO":"999","REV_AT_EPOCH":"978","BSTAR":"0.00000000000000","MEAN_MOTION_DOT":"-0.00000009","MEAN_MOTION_DDOT":"0.0000000000000","SEMIMAJOR_AXIS":"25507.869","PERIOD":"675.727","APOAPSIS":"19144.608","PERIAPSIS":"19114.860","OBJECT_TYPE":"PAYLOAD","RCS_SIZE":"LARGE","COUNTRY_CODE":"CIS","LAUNCH_DATE":"2025-03-02","SITE":"PKMTR","DECAY_DATE":null,"FILE":"5230907","GP_ID":"327230702","TLE_LINE0":"0 COSMOS 2584(GLONASS)","TLE_LINE1":"1 63130U 25042A   26155.93958161 -.00000009  00000-0  00000+0 0  9996","TLE_LINE2":"2 63130  65.0776  73.2182 0005831 229.2014 130.7692  2.13103948  9789"},{"CCSDS_OMM_VERS":"3.0","COMMENT":"GENERATED VIA SPACE-TRACK.ORG API","CREATION_DATE":"2026-06-05T11:08:39","ORIGINATOR":"18 SPCS","OBJECT_NAME":"COSMOS 2584(GLONASS)","OBJECT_ID":"2025-042A","CENTER_NAME":"EARTH","REF_FRAME":"TEME","TIME_SYSTEM":"UTC","MEAN_ELEMENT_THEORY":"SGP4","EPOCH":"2026-06-04T22:32:59.851968","MEAN_MOTION":"2.13103948","ECCENTRICITY":"0.00058312","INCLINATION":"65.0776","RA_OF_ASC_NODE":"73.2182","ARG_OF_PERICENTER":"229.2014","MEAN_ANOMALY":"130.7692","EPHEMERIS_TYPE":"0","CLASSIFICATION_TYPE":"U","NORAD_CAT_ID":"63130","ELEMENT_SET_NO":"999","REV_AT_EPOCH":"978","BSTAR":"0.00000000000000","MEAN_MOTION_DOT":"-0.00000009","MEAN_MOTION_DDOT":"0.0000000000000","SEMIMAJOR_AXIS":"25507.869","PERIOD":"675.727","APOAPSIS":"19144.608","PERIAPSIS":"19114.860","OBJECT_TYPE":"PAYLOAD","RCS_SIZE":"LARGE","COUNTRY_CODE":"CIS","LAUNCH_DATE":"2025-03-02","SITE":"PKMTR","DECAY_DATE":null,"FILE":"5231022","GP_ID":"327269424","TLE_LINE0":"0 COSMOS 2584(GLONASS)","TLE_LINE1":"1 63130U 25042A   26155.93958162 -.00000009  00000-0  00000-0 0  9998","TLE_LINE2":"2 63130  65.0776  73.2182 0005831 229.2014 130.7692  2.13103948  9789"},{"CCSDS_OMM_VERS":"3.0","COMMENT":"GENERATED VIA SPACE-TRACK.ORG API","CREATION_DATE":"2026-06-08T00:36:35","ORIGINATOR":"18 SPCS","OBJECT_NAME":"COSMOS 2584(GLONASS)","OBJECT_ID":"2025-042A","CENTER_NAME":"EARTH","REF_FRAME":"TEME","TIME_SYSTEM":"UTC","MEAN_ELEMENT_THEORY":"SGP4","EPOCH":"2026-06-07T06:51:38.494080","MEAN_MOTION":"2.13103973","ECCENTRICITY":"0.00059050","INCLINATION":"65.0788","RA_OF_ASC_NODE":"73.1386","ARG_OF_PERICENTER":"230.6055","MEAN_ANOMALY":"129.3655","EPHEMERIS_TYPE":"0","CLASSIFICATION_TYPE":"U","NORAD_CAT_ID":"63130","ELEMENT_SET_NO":"999","REV_AT_EPOCH":"983","BSTAR":"0.00000000000000","MEAN_MOTION_DOT":"-0.00000011","MEAN_MOTION_DDOT":"0.0000000000000","SEMIMAJOR_AXIS":"25507.867","PERIOD":"675.726","APOAPSIS":"19144.794","PERIAPSIS":"19114.670","OBJECT_TYPE":"PAYLOAD","RCS_SIZE":"LARGE","COUNTRY_CODE":"CIS","LAUNCH_DATE":"2025-03-02","SITE":"PKMTR","DECAY_DATE":null,"FILE":"5236168","GP_ID":"327929413","TLE_LINE0":"0 COSMOS 2584(GLONASS)","TLE_LINE1":"1 63130U 25042A   26158.28586220 -.00000011  00000-0  00000+0 0  9993","TLE_LINE2":"2 63130  65.0788  73.1386 0005905 230.6055 129.3655  2.13103973  9837"},{"CCSDS_OMM_VERS":"3.0","COMMENT":"GENERATED VIA SPACE-TRACK.ORG API","CREATION_DATE":"2026-06-08T10:56:51","ORIGINATOR":"18 SPCS","OBJECT_NAME":"COSMOS 2584(GLONASS)","OBJECT_ID":"2025-042A","CENTER_NAME":"EARTH","REF_FRAME":"TEME","TIME_SYSTEM":"UTC","MEAN_ELEMENT_THEORY":"SGP4","EPOCH":"2026-06-07T18:07:22.526976","MEAN_MOTION":"2.13103915","ECCENTRICITY":"0.00058542","INCLINATION":"65.0790","RA_OF_ASC_NODE":"73.1226","ARG_OF_PERICENTER":"229.2892","MEAN_ANOMALY":"130.6828","EPHEMERIS_TYPE":"0","CLASSIFICATION_TYPE":"U","NORAD_CAT_ID":"63130","ELEMENT_SET_NO":"999","REV_AT_EPOCH":"984","BSTAR":"0.00000000000000","MEAN_MOTION_DOT":"-0.00000013","MEAN_MOTION_DDOT":"0.0000000000000","SEMIMAJOR_AXIS":"25507.872","PERIOD":"675.727","APOAPSIS":"19144.669","PERIAPSIS":"19114.804","OBJECT_TYPE":"PAYLOAD","RCS_SIZE":"LARGE","COUNTRY_CODE":"CIS","LAUNCH_DATE":"2025-03-02","SITE":"PKMTR","DECAY_DATE":null,"FILE":"5237053","GP_ID":"328039599","TLE_LINE0":"0 COSMOS 2584(GLONASS)","TLE_LINE1":"1 63130U 25042A   26158.75512184 -.00000013  00000-0  00000-0 0  9996","TLE_LINE2":"2 63130  65.0790  73.1226 0005854 229.2892 130.6828  2.13103915  9843"},{"CCSDS_OMM_VERS":"3.0","COMMENT":"GENERATED VIA SPACE-TRACK.ORG API","CREATION_DATE":"2026-06-08T07:26:39","ORIGINATOR":"18 SPCS","OBJECT_NAME":"COSMOS 2584(GLONASS)","OBJECT_ID":"2025-042A","CENTER_NAME":"EARTH","REF_FRAME":"TEME","TIME_SYSTEM":"UTC","MEAN_ELEMENT_THEORY":"SGP4","EPOCH":"2026-06-07T18:07:22.526976","MEAN_MOTION":"2.13103915","ECCENTRICITY":"0.00058540","INCLINATION":"65.0790","RA_OF_ASC_NODE":"73.1226","ARG_OF_PERICENTER":"229.2892","MEAN_ANOMALY":"130.6828","EPHEMERIS_TYPE":"0","CLASSIFICATION_TYPE":"U","NORAD_CAT_ID":"63130","ELEMENT_SET_NO":"999","REV_AT_EPOCH":"984","BSTAR":"0.00000000000000","MEAN_MOTION_DOT":"-0.00000013","MEAN_MOTION_DDOT":"0.0000000000000","SEMIMAJOR_AXIS":"25507.872","PERIOD":"675.727","APOAPSIS":"19144.669","PERIAPSIS":"19114.804","OBJECT_TYPE":"PAYLOAD","RCS_SIZE":"LARGE","COUNTRY_CODE":"CIS","LAUNCH_DATE":"2025-03-02","SITE":"PKMTR","DECAY_DATE":null,"FILE":"5236931","GP_ID":"328001897","TLE_LINE0":"0 COSMOS 2584(GLONASS)","TLE_LINE1":"1 63130U 25042A   26158.75512184 -.00000013  00000-0  00000+0 0  9995","TLE_LINE2":"2 63130  65.0790  73.1226 0005854 229.2892 130.6828  2.13103915  9843"}]